CUTE-1 (CO-55)          
1 27844U 03031E   20288.95833534  .00000060  00000-0  46612-4 0  9991
2 27844  98.6836 294.8956 0010928  71.7614 288.4752 14.22261088897088
CUBESAT XI-IV (CO-57)   
1 27848U 03031J   20288.94943699  .00000044  00000-0  39757-4 0  9992
2 27848  98.6900 295.4524 0010862  83.2270 277.0144 14.21845044896925
CUBESAT XI-V            
1 28895U 05043F   20288.90144819  .00000119  00000-0  31778-4 0  9991
2 28895  98.0271  62.0291 0015481 263.5306  96.4134 14.63808897798088
CUTE-1.7+APD II (CO-65) 
1 32785U 08021C   20288.72032165  .00000221  00000-0  29370-4 0  9992
2 32785  97.5846 271.5608 0014550  97.0191 263.2682 14.88529426675610
AAUSAT-II               
1 32788U 08021F   20288.91553977  .00000101  00000-0  14149-4 0  9990
2 32788  97.4956 288.1332 0012277  21.7490 338.4250 14.95178858677167
DELFI-C3 (DO-64)        
1 32789U 08021G   20288.65187794  .00001380  00000-0  93558-4 0  9993
2 32789  97.4074 327.2318 0010367 265.7419  94.2625 15.08000327679870
SEEDS II (CO-66)        
1 32791U 08021J   20288.51435143  .00000417  00000-0  47363-4 0  9998
2 32791  97.5502 277.4633 0014760  68.2752 292.0037 14.91130965676205
SWISSCUBE               
1 35932U 09051B   20288.48333430  .00000133  00000-0  40934-4 0  9996
2 35932  98.6115 114.6155 0008523 118.2015 242.0044 14.56433438587190
BEESAT-1                
1 35933U 09051C   20288.52841550  .00000105  00000-0  34716-4 0  9999
2 35933  98.6098 116.5287 0006587 128.1027 232.0765 14.56504237587318
ITUPSAT1                
1 35935U 09051E   20288.45566597  .00000083  00000-0  30132-4 0  9991
2 35935  98.6204 116.6361 0008897 129.8080 230.3901 14.55645934587015
TISAT 1                 
1 36799U 10035E   20288.45799291  .00000295  00000-0  35616-4 0  9990
2 36799  98.2025 103.3810 0011143 303.6651  56.3503 14.91445871556868
M-CUBED & EXP-1 PRIME   
1 37855U 11061F   20288.92949275  .00000938  00000-0  53522-4 0  9995
2 37855 101.7258  79.0107 0169982  80.2616 281.7748 15.06639117489193
AEROCUBE 4.5A           
1 38767U 12048K   20288.89633568  .00000297  00000-0  39879-4 0  9992
2 38767  64.6664 222.8259 0134115  93.0840 268.5627 14.92399322 59626
AEROCUBE 4.5B           
1 38768U 12048L   20288.87837562  .00000566  00000-0  57636-4 0  9991
2 38768  64.6671 189.3038 0124152  87.9628 273.5697 14.96113732 59742
STRAND-1                
1 39090U 13009E   20288.85788918  .00000046  00000-0  31272-4 0  9997
2 39090  98.4457 130.5829 0008103 293.0506  66.9825 14.35147852399811
SOMP                    
1 39134U 13015E   20288.30450040  .00001360  00000-0  69221-4 0  9990
2 39134  64.8620 252.2067 0023082 225.7412 134.1822 15.21359983414130
BEESAT-3                
1 39135U 13015F   20288.33168059  .00000757  00000-0  46074-4 0  9990
2 39135  64.8658 277.4241 0028490 224.1713 135.7139 15.18421504413659
BEESAT-2                
1 39136U 13015G   20288.42699068  .00001161  00000-0  66214-4 0  9998
2 39136  64.8739 282.5211 0035288 267.1365  92.5722 15.17817309413566
NEE-01 PEGASO           
1 39151U 13018B   20289.25597359  .00000139  00000-0  25173-4 0  9993
2 39151  97.9766  27.2692 0018323  74.1103 286.2126 14.80212841403405
ESTCUBE 1               
1 39161U 13021C   20289.16205569  .00000149  00000-0  31254-4 0  9995
2 39161  97.9599   9.7592 0008728 210.2465 149.8242 14.72359949399652
POPACS 1                
1 39268U 13055D   20288.69326922  .00002547  00000-0  69606-4 0  9990
2 39268  81.0031 170.0363 0612219 227.7808 126.9875 14.40233198366624
POPACS 2                
1 39269U 13055E   20288.81425840  .00004410  00000-0  12635-3 0  9994
2 39269  81.0170 210.7329 0675098 333.3430  23.4452 14.26079765362992
POPACS 3                
1 39270U 13055F   20288.87914429  .00003811  00000-0  11697-3 0  9999
2 39270  81.0166 233.9806 0709403  39.8907 325.2236 14.17187234342049
ZACUBE-1 (TSHEPISOSAT)  
1 39417U 13066B   20288.92773635  .00000187  00000-0  29912-4 0  9995
2 39417  97.5730 280.3496 0057362 245.5895 113.9327 14.81333326372721
WNISAT-1                
1 39423U 13066H   20289.19922199 -.00000017  00000-0  68951-5 0  9993
2 39423  97.7967 202.4883 0173759 242.1505 116.2011 14.53144023365818
TRITON-1                
1 39427U 13066M   20288.96237655  .00000292  00000-0  54090-4 0  9999
2 39427  97.7404 243.3386 0114882  56.2290 304.9796 14.68060169369394
GOMX-1                  
1 39430U 13066Q   20289.23906573  .00000138  00000-0  33885-4 0  9994
2 39430  97.7960 220.5654 0150848 166.7055 193.8196 14.59446898367279
CUBEBUG-2 (LO-74)       
1 39440U 13066AA  20288.93600278  .00000241  00000-0  40527-4 0  9990
2 39440  97.6445 264.9138 0079020 313.1253  46.3366 14.76069920370200
NEE-02 KRYSAOR          
1 39441U 13066AB  20288.89313193  .00000163  00000-0  30445-4 0  9994
2 39441  97.6525 262.3252 0080776 322.9542  36.6107 14.75057833370011
FUNCUBE-1 (AO-73)       
1 39444U 13066AE  20288.92383556  .00000235  00000-0  35136-4 0  9993
2 39444  97.5661 282.6375 0056566 237.0133 122.5637 14.82198627371061
UWE-3                   
1 39446U 13066AG  20288.92305762  .00000207  00000-0  34166-4 0  9999
2 39446  97.6099 272.0413 0068388 280.3993  78.9516 14.78602597370223
AEROCUBE 5A             
1 39465U 13072D   20288.73396758  .00009361  00000-0  74560-3 0  9992
2 39465 120.4940 235.3348 0265997   9.4190 351.1728 14.77432260 58981
AEROCUBE 5B             
1 39466U 13072E   20288.82999533  .00011045  00000-0  73657-3 0  9991
2 39466 120.4866 279.0207 0237020  20.8249 340.2284 14.87600760 59324
BRITE-CA1 (TORONTO)     
1 40020U 14033L   20289.41783449  .00000064  00000-0  19124-4 0  9999
2 40020  97.7321 110.7742 0088465  50.4833 310.4150 14.66665128338354
DUCHIFAT-1              
1 40021U 14033M   20289.41082833  .00000352  00000-0  41482-4 0  9991
2 40021  97.9474 221.4099 0011384 250.9065 109.0920 14.91001879343764
NANOSATC-BR1            
1 40024U 14033Q   20288.76246693  .00000375  00000-0  44649-4 0  9990
2 40024  97.9299 216.7388 0010735 258.7210 101.2801 14.90156449343009
QB50P1                  
1 40025U 14033R   20288.85622855  .00000254  00000-0  32818-4 0  9990
2 40025  97.9158 213.1518 0010922 266.9387  93.0580 14.89207240342863
QB50P2                  
1 40032U 14033Y   20288.80931362  .00000276  00000-0  35524-4 0  9990
2 40032  97.9028 210.3062 0010376 263.6936  96.3099 14.88728545342740
PERSEUS-M2              
1 40037U 14033AD  20288.87324752  .00000094  00000-0  16820-4 0  9997
2 40037  97.8844 204.2928 0012970 282.3542  77.6222 14.86572937342409
PERSEUS-M1              
1 40039U 14033AF  20288.91328225  .00000063  00000-0  13446-4 0  9990
2 40039  97.8801 202.9782 0012805 280.2476  79.7296 14.86193558342319
POLYITAN-1              
1 40042U 14033AJ  20288.80513516  .00000339  00000-0  42101-4 0  9997
2 40042  97.9245 213.7119 0013138 257.3319 102.6429 14.88959192342759
TIGRISAT                
1 40043U 14033AK  20288.86430908  .00000122  00000-0  25394-4 0  9992
2 40043  97.6948 139.2669 0059339 334.0025  25.8206 14.74417450339643
AEROCUBE 6A             
1 40045U 14033AM  20289.16749006  .00000189  00000-0  34361-4 0  9997
2 40045  97.7197 145.6276 0057083 323.8648  35.8710 14.75632601340009
AEROCUBE 6B             
1 40046U 14033AN  20288.83864377  .00000252  00000-0  43412-4 0  9998
2 40046  97.7101 144.4470 0056238 323.9859  35.7567 14.75633109339713
UKUBE-1                 
1 40074U 14037F   20289.36044879  .00000298  00000-0  42639-4 0  9999
2 40074  98.4515 124.8343 0005295  92.0838 268.0995 14.84339513339549
BRITE-PL2 (HEWELIUSZ)   
1 40119U 14049B   20288.82516154  .00000094  00000-0  17495-4 0  9998
2 40119  97.8943  19.8658 0018802  80.1861 280.1475 14.84541527333408
FIREBIRD 4              
1 40378U 15003C   20289.23148777  .00001684  00000-0  67615-4 0  9999
2 40378  99.0868  14.0183 0121677 273.7840  84.9485 15.20519682315518
GRIFEX                  
1 40379U 15003D   20289.42959404  .00001004  00000-0  45938-4 0  9998
2 40379  99.0911   5.4539 0130995 300.7039  58.1336 15.16730372315032
EXOCUBE (CP10)          
1 40380U 15003E   20288.80408460  .00000792  00000-0  39023-4 0  9993
2 40380  99.0973   0.0161 0136377 318.9620  40.1407 15.14633462314614
AEROCUBE 8A             
1 40659U 15025J   20288.90421344  .00026160  00000-0  24557-3 0  9995
2 40659  55.0129  98.8335 0099686 126.2149 234.8157 15.60842588 62181
AEROCUBE 8B             
1 40660U 15025K   20288.78798456  .00023868  00000-0  22176-3 0  9991
2 40660  55.0105  96.9492 0098648 128.0824 232.9164 15.61268838 62185
TIANWANG 1C (TW-1C)     
1 40926U 15051B   20289.44437796  .00034918  00000-0  26881-3 0  9991
2 40926  97.0706 342.3455 0004289  15.8344  39.5852 15.71921520285837
TIANWANG 1A (TW-1A)     
1 40928U 15051D   20289.32548512  .00002968  00000-0  68481-4 0  9992
2 40928  97.1027 314.2305 0012126 106.2623  19.7780 15.43269752283853
EXACTVIEW 9             
1 40936U 15052G   20289.32906992  .00000790  00000-0  21303-4 0  9995
2 40936   6.0028 205.4912 0010302 163.4568 196.5896 14.76602391272961
AEROCUBE 5C             
1 40965U 15058B   20288.93176429  .00000080  00000-0  28906-4 0  9991
2 40965  64.7770 142.0571 0177562  30.4906 330.6377 14.74574390 58924
AEROCUBE 7              
1 40966U 15058C   20288.88732178  .00000127  00000-0  34201-4 0  9992
2 40966  64.7769 140.5013 0176520  30.1710 330.9418 14.74886471 58925
ATHENOXAT 1             
1 41168U 15077C   20289.30020639  .00002165  00000-0  77130-4 0  9990
2 41168  14.9883 261.9448 0011136 357.1835   2.8423 15.14637958267534
GALASSIA                
1 41170U 15077E   20289.25960748  .00002083  00000-0  72005-4 0  9996
2 41170  14.9887 253.6941 0012402  24.1906 335.8996 15.14924868267605
VELOX-II                
1 41171U 15077F   20288.40820914  .00001601  00000-0  52645-4 0  9996
2 41171  14.9919 308.5354 0008640 259.8101 100.1245 15.11866940267044
